{
  "type": "FeatureCollection",
  "features": [
    {
      "type": "Feature",
      "properties": {
        "norad_id": 35890,
        "name": "COSMOS 2251 DEB",
        "group": "cosmos-2251-debris",
        "lat": -47.74759396124811,
        "lon": -152.75499115064,
        "alt_km": 677.6089856880044,
        "timestamp": "2025-12-21T14:40:48.315634+00:00",
        "meta_object_name": "COSMOS 2251 DEB",
        "meta_object_id": "1993-036AUD",
        "meta_epoch": "2025-12-16T22:53:46.078656",
        "meta_mean_motion": 14.57543512,
        "meta_eccentricity": 0.00539437,
        "meta_inclination": 73.9365,
        "meta_ra_of_asc_node": 234.6414,
        "meta_arg_of_pericenter": 358.5125,
        "meta_mean_anomaly": 1.5869,
        "meta_ephemeris_type": 0,
        "meta_classification_type": "U",
        "meta_norad_cat_id": 35890,
        "meta_element_set_no": 999,
        "meta_rev_at_epoch": 65212,
        "meta_bstar": 0.0012168345,
        "meta_mean_motion_dot": 5.621e-05,
        "meta_mean_motion_ddot": 0,
        "tle_line1": "1 35890U 93036AUD 25350.95400554  .00005621  00000+0  12168-2 0  9996",
        "tle_line2": "2 35890  73.9365 234.6414 0053943 358.5125   1.5869 14.57543512652129"
      },
      "geometry": {
        "type": "Point",
        "coordinates": [
          -152.75499115064,
          -47.74759396124811
        ]
      }
    },
    {
      "type": "Feature",
      "properties": {
        "norad_id": 35891,
        "name": "COSMOS 2251 DEB",
        "group": "cosmos-2251-debris",
        "lat": 60.243045820717796,
        "lon": -135.31732871936666,
        "alt_km": 456.8013417859602,
        "timestamp": "2025-12-21T14:40:48.315644+00:00",
        "meta_object_name": "COSMOS 2251 DEB",
        "meta_object_id": "1993-036AUE",
        "meta_epoch": "2025-12-19T23:02:38.567040",
        "meta_mean_motion": 15.33900235,
        "meta_eccentricity": 0.0042412,
        "meta_inclination": 73.9897,
        "meta_ra_of_asc_node": 78.3766,
        "meta_arg_of_pericenter": 207.7893,
        "meta_mean_anomaly": 152.1046,
        "meta_ephemeris_type": 0,
        "meta_classification_type": "U",
        "meta_norad_cat_id": 35891,
        "meta_element_set_no": 999,
        "meta_rev_at_epoch": 67331,
        "meta_bstar": 0.0008769,
        "meta_mean_motion_dot": 0.00029674,
        "meta_mean_motion_ddot": 0,
        "tle_line1": "1 35891U 93036AUE 25353.96016860  .00029674  00000+0  87690-3 0  9991",
        "tle_line2": "2 35891  73.9897  78.3766 0042412 207.7893 152.1046 15.33900235673317"
      },
      "geometry": {
        "type": "Point",
        "coordinates": [
          -135.31732871936666,
          60.243045820717796
        ]
      }
    },
    {
      "type": "Feature",
      "properties": {
        "norad_id": 35895,
        "name": "COSMOS 2251 DEB",
        "group": "cosmos-2251-debris",
        "lat": 2.3668982916208567,
        "lon": 151.59807471784933,
        "alt_km": 935.4362055977563,
        "timestamp": "2025-12-21T14:40:48.315654+00:00",
        "meta_object_name": "COSMOS 2251 DEB",
        "meta_object_id": "1993-036AUJ",
        "meta_epoch": "2025-12-20T05:18:32.719392",
        "meta_mean_motion": 14.01557935,
        "meta_eccentricity": 0.0199682,
        "meta_inclination": 74.0503,
        "meta_ra_of_asc_node": 334.6863,
        "meta_arg_of_pericenter": 71.097,
        "meta_mean_anomaly": 291.1695,
        "meta_ephemeris_type": 0,
        "meta_classification_type": "U",
        "meta_norad_cat_id": 35895,
        "meta_element_set_no": 999,
        "meta_rev_at_epoch": 59117,
        "meta_bstar": 0.0011304,
        "meta_mean_motion_dot": 2.013e-05,
        "meta_mean_motion_ddot": 0,
        "tle_line1": "1 35895U 93036AUJ 25354.22121203  .00002013  00000+0  11304-2 0  9999",
        "tle_line2": "2 35895  74.0503 334.6863 0199682  71.0970 291.1695 14.01557935591179"
      },
      "geometry": {
        "type": "Point",
        "coordinates": [
          151.59807471784933,
          2.3668982916208567
        ]
      }
    },
    {
      "type": "Feature",
      "properties": {
        "norad_id": 35898,
        "name": "COSMOS 2251 DEB",
        "group": "cosmos-2251-debris",
        "lat": 41.774139975426976,
        "lon": 84.66157255717017,
        "alt_km": 564.8343063095144,
        "timestamp": "2025-12-21T14:40:48.315664+00:00",
        "meta_object_name": "COSMOS 2251 DEB",
        "meta_object_id": "1993-036AUM",
        "meta_epoch": "2025-12-17T02:32:30.687072",
        "meta_mean_motion": 14.94779467,
        "meta_eccentricity": 0.00792454,
        "meta_inclination": 73.9918,
        "meta_ra_of_asc_node": 288.6268,
        "meta_arg_of_pericenter": 70.8936,
        "meta_mean_anomaly": 307.548,
        "meta_ephemeris_type": 0,
        "meta_classification_type": "U",
        "meta_norad_cat_id": 35898,
        "meta_element_set_no": 999,
        "meta_rev_at_epoch": 66875,
        "meta_bstar": 0.00065982938,
        "meta_mean_motion_dot": 7.606e-05,
        "meta_mean_motion_ddot": 0,
        "tle_line1": "1 35898U 93036AUM 25351.10591073  .00007606  00000+0  65983-3 0  9998",
        "tle_line2": "2 35898  73.9918 288.6268 0079245  70.8936 307.5480 14.94779467668759"
      },
      "geometry": {
        "type": "Point",
        "coordinates": [
          84.66157255717017,
          41.774139975426976
        ]
      }
    },
    {
      "type": "Feature",
      "properties": {
        "norad_id": 35901,
        "name": "COSMOS 2251 DEB",
        "group": "cosmos-2251-debris",
        "lat": -2.990160849719631,
        "lon": -174.54298202759813,
        "alt_km": 550.6920157198065,
        "timestamp": "2025-12-21T14:40:48.315674+00:00",
        "meta_object_name": "COSMOS 2251 DEB",
        "meta_object_id": "1993-036AUQ",
        "meta_epoch": "2025-12-21T07:33:55.014912",
        "meta_mean_motion": 15.07789315,
        "meta_eccentricity": 0.00075979,
        "meta_inclination": 74.0113,
        "meta_ra_of_asc_node": 5.2093,
        "meta_arg_of_pericenter": 337.8636,
        "meta_mean_anomaly": 36.6976,
        "meta_ephemeris_type": 0,
        "meta_classification_type": "U",
        "meta_norad_cat_id": 35901,
        "meta_element_set_no": 999,
        "meta_rev_at_epoch": 86256,
        "meta_bstar": 0.0027352178,
        "meta_mean_motion_dot": 0.00042089,
        "meta_mean_motion_ddot": 0,
        "tle_line1": "1 35901U 93036AUQ 25355.31522008  .00042089  00000+0  27352-2 0  9993",
        "tle_line2": "2 35901  74.0113   5.2093 0007597 337.8636  36.6976 15.07789315862569"
      },
      "geometry": {
        "type": "Point",
        "coordinates": [
          -174.54298202759813,
          -2.990160849719631
        ]
      }
    },
    {
      "type": "Feature",
      "properties": {
        "norad_id": 35902,
        "name": "COSMOS 2251 DEB",
        "group": "cosmos-2251-debris",
        "lat": 57.19415827108389,
        "lon": -115.05581398800231,
        "alt_km": 794.7430615957264,
        "timestamp": "2025-12-21T14:40:48.315684+00:00",
        "meta_object_name": "COSMOS 2251 DEB",
        "meta_object_id": "1993-036AUR",
        "meta_epoch": "2025-12-19T15:17:09.843072",
        "meta_mean_motion": 14.26937143,
        "meta_eccentricity": 0.0102282,
        "meta_inclination": 73.9823,
        "meta_ra_of_asc_node": 222.0626,
        "meta_arg_of_pericenter": 335.5486,
        "meta_mean_anomaly": 24.0827,
        "meta_ephemeris_type": 0,
        "meta_classification_type": "U",
        "meta_norad_cat_id": 35902,
        "meta_element_set_no": 999,
        "meta_rev_at_epoch": 61228,
        "meta_bstar": 0.00057286,
        "meta_mean_motion_dot": 1.445e-05,
        "meta_mean_motion_ddot": 0,
        "tle_line1": "1 35902U 93036AUR 25353.63691948  .00001445  00000+0  57286-3 0  9998",
        "tle_line2": "2 35902  73.9823 222.0626 0102282 335.5486  24.0827 14.26937143612284"
      },
      "geometry": {
        "type": "Point",
        "coordinates": [
          -115.05581398800231,
          57.19415827108389
        ]
      }
    },
    {
      "type": "Feature",
      "properties": {
        "norad_id": 35905,
        "name": "COSMOS 2251 DEB",
        "group": "cosmos-2251-debris",
        "lat": 24.849445083028062,
        "lon": 5.1800239025591175,
        "alt_km": 596.4981427881885,
        "timestamp": "2025-12-21T14:40:48.315694+00:00",
        "meta_object_name": "COSMOS 2251 DEB",
        "meta_object_id": "1993-036AUU",
        "meta_epoch": "2025-12-19T20:20:40.701984",
        "meta_mean_motion": 14.99109626,
        "meta_eccentricity": 0.00907234,
        "meta_inclination": 74.0303,
        "meta_ra_of_asc_node": 196.3814,
        "meta_arg_of_pericenter": 274.7905,
        "meta_mean_anomaly": 84.2926,
        "meta_ephemeris_type": 0,
        "meta_classification_type": "U",
        "meta_norad_cat_id": 35905,
        "meta_element_set_no": 999,
        "meta_rev_at_epoch": 88689,
        "meta_bstar": 0.00038534717,
        "meta_mean_motion_dot": 5.062e-05,
        "meta_mean_motion_ddot": 0,
        "tle_line1": "1 35905U 93036AUU 25353.84769331  .00005062  00000+0  38535-3 0  9991",
        "tle_line2": "2 35905  74.0303 196.3814 0090723 274.7905  84.2926 14.99109626886895"
      },
      "geometry": {
        "type": "Point",
        "coordinates": [
          5.1800239025591175,
          24.849445083028062
        ]
      }
    }
  ]
}